[{"OBJECT_NAME":"ONEWEB-0563","OBJECT_ID":"2023-029E","EPOCH":"2025-12-07T22:20:22.083360","MEAN_MOTION":13.20773739,"ECCENTRICITY":0.00020963,"INCLINATION":87.919,"RA_OF_ASC_NODE":312.6361,"ARG_OF_PERICENTER":83.1943,"MEAN_ANOMALY":276.9428,"EPHEMERIS_TYPE":0,"CLASSIFICATION_TYPE":"U","NORAD_CAT_ID":55800,"ELEMENT_SET_NO":999,"REV_AT_EPOCH":13589,"BSTAR":-0.00011035874,"MEAN_MOTION_DOT":-3.2e-7,"MEAN_MOTION_DDOT":0},{"OBJECT_NAME":"ONEWEB-0564","OBJECT_ID":"2023-029F","EPOCH":"2025-12-07T22:11:16.360224","MEAN_MOTION":13.20769191,"ECCENTRICITY":0.00016958,"INCLINATION":87.9187,"RA_OF_ASC_NODE":312.6137,"ARG_OF_PERICENTER":95.9784,"MEAN_ANOMALY":264.1542,"EPHEMERIS_TYPE":0,"CLASSIFICATION_TYPE":"U","NORAD_CAT_ID":55801,"ELEMENT_SET_NO":999,"REV_AT_EPOCH":13590,"BSTAR":-3.592161e-6,"MEAN_MOTION_DOT":1.2e-7,"MEAN_MOTION_DDOT":0},{"OBJECT_NAME":"ONEWEB-0638","OBJECT_ID":"2023-029G","EPOCH":"2025-12-07T22:57:51.841728","MEAN_MOTION":13.14503612,"ECCENTRICITY":0.00020321,"INCLINATION":87.8978,"RA_OF_ASC_NODE":327.8672,"ARG_OF_PERICENTER":98.9848,"MEAN_ANOMALY":261.1511,"EPHEMERIS_TYPE":0,"CLASSIFICATION_TYPE":"U","NORAD_CAT_ID":55802,"ELEMENT_SET_NO":999,"REV_AT_EPOCH":13427,"BSTAR":0.00062608261,"MEAN_MOTION_DOT":2.45e-6,"MEAN_MOTION_DDOT":0},{"OBJECT_NAME":"ONEWEB-0639","OBJECT_ID":"2023-029H","EPOCH":"2025-12-07T23:21:58.712544","MEAN_MOTION":13.19724165,"ECCENTRICITY":0.00026422,"INCLINATION":87.9186,"RA_OF_ASC_NODE":343.0288,"ARG_OF_PERICENTER":70.8862,"MEAN_ANOMALY":289.2557,"EPHEMERIS_TYPE":0,"CLASSIFICATION_TYPE":"U","NORAD_CAT_ID":55803,"ELEMENT_SET_NO":999,"REV_AT_EPOCH":13368,"BSTAR":0.00010770998,"MEAN_MOTION_DOT":5.6e-7,"MEAN_MOTION_DDOT":0},{"OBJECT_NAME":"ONEWEB-0640","OBJECT_ID":"2023-029J","EPOCH":"2025-12-07T23:11:33.244800","MEAN_MOTION":13.1450322,"ECCENTRICITY":0.00025062,"INCLINATION":87.8983,"RA_OF_ASC_NODE":327.8526,"ARG_OF_PERICENTER":93.661,"MEAN_ANOMALY":266.4806,"EPHEMERIS_TYPE":0,"CLASSIFICATION_TYPE":"U","NORAD_CAT_ID":55804,"ELEMENT_SET_NO":999,"REV_AT_EPOCH":13429,"BSTAR":0.00035991896,"MEAN_MOTION_DOT":1.46e-6,"MEAN_MOTION_DDOT":0},{"OBJECT_NAME":"ONEWEB-0641","OBJECT_ID":"2023-029K","EPOCH":"2025-12-07T23:15:09.166176","MEAN_MOTION":13.19724633,"ECCENTRICITY":0.0001903,"INCLINATION":87.92,"RA_OF_ASC_NODE":343.0103,"ARG_OF_PERICENTER":84.6672,"MEAN_ANOMALY":275.4678,"EPHEMERIS_TYPE":0,"CLASSIFICATION_TYPE":"U","NORAD_CAT_ID":55805,"ELEMENT_SET_NO":999,"REV_AT_EPOCH":13369,"BSTAR":0.00022906037,"MEAN_MOTION_DOT":1.05e-6,"MEAN_MOTION_DDOT":0},{"OBJECT_NAME":"ONEWEB-0642","OBJECT_ID":"2023-029L","EPOCH":"2025-12-07T23:08:19.933440","MEAN_MOTION":13.19724859,"ECCENTRICITY":0.00022969,"INCLINATION":87.9191,"RA_OF_ASC_NODE":343.0348,"ARG_OF_PERICENTER":68.5343,"MEAN_ANOMALY":291.6035,"EPHEMERIS_TYPE":0,"CLASSIFICATION_TYPE":"U","NORAD_CAT_ID":55806,"ELEMENT_SET_NO":999,"REV_AT_EPOCH":13368,"BSTAR":0.00030733974,"MEAN_MOTION_DOT":1.36e-6,"MEAN_MOTION_DDOT":0},{"OBJECT_NAME":"ONEWEB-0643","OBJECT_ID":"2023-029M","EPOCH":"2025-12-07T22:28:09.682752","MEAN_MOTION":13.14503494,"ECCENTRICITY":0.0001932,"INCLINATION":87.8984,"RA_OF_ASC_NODE":327.8448,"ARG_OF_PERICENTER":64.9513,"MEAN_ANOMALY":295.1817,"EPHEMERIS_TYPE":0,"CLASSIFICATION_TYPE":"U","NORAD_CAT_ID":55807,"ELEMENT_SET_NO":999,"REV_AT_EPOCH":13426,"BSTAR":7.0366426e-5,"MEAN_MOTION_DOT":3.9e-7,"MEAN_MOTION_DDOT":0},{"OBJECT_NAME":"ONEWEB-0644","OBJECT_ID":"2023-029N","EPOCH":"2025-12-07T23:01:31.245024","MEAN_MOTION":13.19725964,"ECCENTRICITY":0.00019471,"INCLINATION":87.9191,"RA_OF_ASC_NODE":343.0452,"ARG_OF_PERICENTER":77.6933,"MEAN_ANOMALY":282.4418,"EPHEMERIS_TYPE":0,"CLASSIFICATION_TYPE":"U","NORAD_CAT_ID":55808,"ELEMENT_SET_NO":999,"REV_AT_EPOCH":13368,"BSTAR":0.0002338214,"MEAN_MOTION_DOT":1.07e-6,"MEAN_MOTION_DDOT":0},{"OBJECT_NAME":"ONEWEB-0645","OBJECT_ID":"2023-029P","EPOCH":"2025-12-07T23:33:20.947680","MEAN_MOTION":13.19725344,"ECCENTRICITY":0.00023282,"INCLINATION":87.9181,"RA_OF_ASC_NODE":343.0346,"ARG_OF_PERICENTER":84.082,"MEAN_ANOMALY":276.0578,"EPHEMERIS_TYPE":0,"CLASSIFICATION_TYPE":"U","NORAD_CAT_ID":55809,"ELEMENT_SET_NO":999,"REV_AT_EPOCH":13368,"BSTAR":-9.2621666e-5,"MEAN_MOTION_DOT":-2.4e-7,"MEAN_MOTION_DDOT":0},{"OBJECT_NAME":"ONEWEB-0646","OBJECT_ID":"2023-029Q","EPOCH":"2025-12-07T22:09:11.777472","MEAN_MOTION":13.19727567,"ECCENTRICITY":0.00018839,"INCLINATION":87.9192,"RA_OF_ASC_NODE":343.037,"ARG_OF_PERICENTER":80.6674,"MEAN_ANOMALY":279.4671,"EPHEMERIS_TYPE":0,"CLASSIFICATION_TYPE":"U","NORAD_CAT_ID":55810,"ELEMENT_SET_NO":999,"REV_AT_EPOCH":13366,"BSTAR":-6.9830944e-5,"MEAN_MOTION_DOT":-1.5e-7,"MEAN_MOTION_DDOT":0},{"OBJECT_NAME":"ONEWEB-0648","OBJECT_ID":"2023-029R","EPOCH":"2025-12-07T23:32:06.064800","MEAN_MOTION":13.14503575,"ECCENTRICITY":0.00026609,"INCLINATION":87.8984,"RA_OF_ASC_NODE":327.7974,"ARG_OF_PERICENTER":74.7558,"MEAN_ANOMALY":285.3866,"EPHEMERIS_TYPE":0,"CLASSIFICATION_TYPE":"U","NORAD_CAT_ID":55811,"ELEMENT_SET_NO":999,"REV_AT_EPOCH":13427,"BSTAR":-0.00028512801,"MEAN_MOTION_DOT":-9.3e-7,"MEAN_MOTION_DDOT":0},{"OBJECT_NAME":"ONEWEB-0649","OBJECT_ID":"2023-029S","EPOCH":"2025-12-07T22:45:34.788384","MEAN_MOTION":13.19724787,"ECCENTRICITY":0.00021637,"INCLINATION":87.9197,"RA_OF_ASC_NODE":343.0284,"ARG_OF_PERICENTER":82.2892,"MEAN_ANOMALY":277.8486,"EPHEMERIS_TYPE":0,"CLASSIFICATION_TYPE":"U","NORAD_CAT_ID":55812,"ELEMENT_SET_NO":999,"REV_AT_EPOCH":13370,"BSTAR":0.00018209759,"MEAN_MOTION_DOT":8.6e-7,"MEAN_MOTION_DDOT":0},{"OBJECT_NAME":"ONEWEB-0650","OBJECT_ID":"2023-029T","EPOCH":"2025-12-07T22:38:44.638944","MEAN_MOTION":13.19723316,"ECCENTRICITY":0.00020549,"INCLINATION":87.9189,"RA_OF_ASC_NODE":343.0356,"ARG_OF_PERICENTER":77.3101,"MEAN_ANOMALY":282.8261,"EPHEMERIS_TYPE":0,"CLASSIFICATION_TYPE":"U","NORAD_CAT_ID":55813,"ELEMENT_SET_NO":999,"REV_AT_EPOCH":13367,"BSTAR":0.0002369174,"MEAN_MOTION_DOT":1.08e-6,"MEAN_MOTION_DDOT":0},{"OBJECT_NAME":"ONEWEB-0652","OBJECT_ID":"2023-029U","EPOCH":"2025-12-07T23:04:42.300480","MEAN_MOTION":13.14503111,"ECCENTRICITY":0.00016359,"INCLINATION":87.898,"RA_OF_ASC_NODE":327.8219,"ARG_OF_PERICENTER":89.6021,"MEAN_ANOMALY":270.5296,"EPHEMERIS_TYPE":0,"CLASSIFICATION_TYPE":"U","NORAD_CAT_ID":55814,"ELEMENT_SET_NO":999,"REV_AT_EPOCH":13424,"BSTAR":0.00053980059,"MEAN_MOTION_DOT":2.13e-6,"MEAN_MOTION_DDOT":0},{"OBJECT_NAME":"ONEWEB-0653","OBJECT_ID":"2023-029V","EPOCH":"2025-12-07T22:41:52.183104","MEAN_MOTION":13.1450387,"ECCENTRICITY":0.0001797,"INCLINATION":87.8978,"RA_OF_ASC_NODE":327.8146,"ARG_OF_PERICENTER":92.3713,"MEAN_ANOMALY":267.7623,"EPHEMERIS_TYPE":0,"CLASSIFICATION_TYPE":"U","NORAD_CAT_ID":55815,"ELEMENT_SET_NO":999,"REV_AT_EPOCH":13427,"BSTAR":0.00041996682,"MEAN_MOTION_DOT":1.68e-6,"MEAN_MOTION_DDOT":0},{"OBJECT_NAME":"ONEWEB-0654","OBJECT_ID":"2023-029W","EPOCH":"2025-12-07T22:35:00.828384","MEAN_MOTION":13.1450369,"ECCENTRICITY":0.00015724,"INCLINATION":87.8981,"RA_OF_ASC_NODE":327.815,"ARG_OF_PERICENTER":97.4835,"MEAN_ANOMALY":262.6473,"EPHEMERIS_TYPE":0,"CLASSIFICATION_TYPE":"U","NORAD_CAT_ID":55816,"ELEMENT_SET_NO":999,"REV_AT_EPOCH":13429,"BSTAR":0.00028837622,"MEAN_MOTION_DOT":1.2e-6,"MEAN_MOTION_DDOT":0}]
