ONEWEB-0563             
1 55800U 23029E   25341.93081115 -.00000032  00000+0 -11036-3 0  9997
2 55800  87.9190 312.6361 0002096  83.1943 276.9428 13.20773739135897
ONEWEB-0564             
1 55801U 23029F   25341.92449491  .00000012  00000+0 -35922-5 0  9991
2 55801  87.9187 312.6137 0001695  95.9784 264.1542 13.20769191135908
ONEWEB-0638             
1 55802U 23029G   25341.95685002  .00000245  00000+0  62608-3 0  9991
2 55802  87.8978 327.8672 0002032  98.9848 261.1511 13.14503612134277
ONEWEB-0639             
1 55803U 23029H   25341.97359621  .00000056  00000+0  10771-3 0  9993
2 55803  87.9186 343.0288 0002642  70.8862 289.2557 13.19724165133683
ONEWEB-0640             
1 55804U 23029J   25341.96635700  .00000146  00000+0  35992-3 0  9990
2 55804  87.8983 327.8526 0002506  93.6610 266.4806 13.14503220134290
ONEWEB-0641             
1 55805U 23029K   25341.96885609  .00000105  00000+0  22906-3 0  9992
2 55805  87.9200 343.0103 0001903  84.6672 275.4678 13.19724633133691
ONEWEB-0642             
1 55806U 23029L   25341.96411960  .00000136  00000+0  30734-3 0  9990
2 55806  87.9191 343.0348 0002296  68.5343 291.6035 13.19724859133680
ONEWEB-0643             
1 55807U 23029M   25341.93622318  .00000039  00000+0  70366-4 0  9997
2 55807  87.8984 327.8448 0001932  64.9513 295.1817 13.14503494134263
ONEWEB-0644             
1 55808U 23029N   25341.95938941  .00000107  00000+0  23382-3 0  9993
2 55808  87.9191 343.0452 0001947  77.6933 282.4418 13.19725964133687
ONEWEB-0645             
1 55809U 23029P   25341.98149245 -.00000024  00000+0 -92622-4 0  9992
2 55809  87.9181 343.0346 0002328  84.0820 276.0578 13.19725344133688
ONEWEB-0646             
1 55810U 23029Q   25341.92305298 -.00000015  00000+0 -69831-4 0  9996
2 55810  87.9192 343.0370 0001883  80.6674 279.4671 13.19727567133661
ONEWEB-0648             
1 55811U 23029R   25341.98062575 -.00000093  00000+0 -28513-3 0  9998
2 55811  87.8984 327.7974 0002660  74.7558 285.3866 13.14503575134274
ONEWEB-0649             
1 55812U 23029S   25341.94831931  .00000086  00000+0  18210-3 0  9998
2 55812  87.9197 343.0284 0002163  82.2892 277.8486 13.19724787133706
ONEWEB-0650             
1 55813U 23029T   25341.94357221  .00000108  00000+0  23692-3 0  9999
2 55813  87.9189 343.0356 0002054  77.3101 282.8261 13.19723316133675
ONEWEB-0652             
1 55814U 23029U   25341.96160070  .00000213  00000+0  53980-3 0  9996
2 55814  87.8980 327.8219 0001635  89.6021 270.5296 13.14503111134243
ONEWEB-0653             
1 55815U 23029V   25341.94574286  .00000168  00000+0  41997-3 0  9997
2 55815  87.8978 327.8146 0001797  92.3713 267.7623 13.14503870134275
ONEWEB-0654             
1 55816U 23029W   25341.94098181  .00000120  00000+0  28838-3 0  9990
2 55816  87.8981 327.8150 0001572  97.4835 262.6473 13.14503690134296
